"G!o'e !Hu:229762 G!kun||'homdima I:G!kun||'homdima I:S 2008 (229762) 1" "Sol/G!kun||'homdima"
{
	Class	"minormoon"
	Mesh	"asteroid.cms"
	Texture	"asteroid.*"
	Color	[ 1.0 0.857 0.644 ]  # reddish
	BlendTexture	true
	Radius	72
	OrbitFrame
	{
		EquatorJ2000	{ Center "Sol/G!kun||'homdima" }
	}
	EllipticalOrbit
	{
		Epoch	2457000.0  # 2014 Dec 08 12:00
		Period	11.3147
		SemiMajorAxis	6012
		Eccentricity	0.025
		Inclination	43.7
		AscendingNode	110.9
		ArgOfPericenter	340.4
		MeanAnomaly	252.9
	}
	UniformRotation  # to match orbit plane
	{
		Inclination	55.6
		AscendingNode	128.5
	}
	LunarLambert	0.5
	GeomAlbedo	0.142  # assume equal albedo as primary
	InfoURL	"https://en.wikipedia.org/wiki/229762_G%C7%83k%C3%BAn%C7%81%CA%BCh%C3%B2md%C3%ADm%C3%A0#Satellite"
}

# Rommel et al. (2023), A&A 678, A167
# "A large topographic feature on the surface of the trans-Neptunian object
# (307261) 2002 MS4 measured from stellar occultations"
# https://ui.adsabs.harvard.edu/abs/2023A%26A...678A.167R/abstract
# Rotation period from Peng (2023)
# "Phase Dependent Variation in the Reflectivity of Kuiper Belt Object 2002 MS4"
# https://dspace.library.uvic.ca/handle/1828/15363
# Bond albedo from Verbiscer et al. (2022), Planet. Sci. J. 3, 95
# "The Diverse Shapes of Dwarf Planet and Large KBO Phase Curves Observed from New Horizons"
# https://ui.adsabs.harvard.edu/abs/2022PSJ.....3...95V/abstract
"(307261) 2002 MS4:2002 MS4" "Sol"
{
	Class	"asteroid"
	Texture	"asteroid.*"
	Color	[ 0.472 0.475 0.475 ]
	BlendTexture	true
	SemiAxes	[ 412 412 385 ]  # projected
	EllipticalOrbit
	{
		Epoch	2460200.5  # 2023-Sep-13.0
		Period	270.0222533729419
		SemiMajorAxis	41.77606882335311
		Eccentricity	0.1467734977684897
		Inclination	17.71228981040321
		AscendingNode	216.2744923352801
		ArgOfPericenter	213.3545769171915
		MeanAnomaly	228.9927153126468
	}
	BodyFrame	{ EquatorJ2000 {} }
	UniformRotation
	{
		Period	14.251
		Inclination	120.8  # assume no inclination on 2023-08-08
		AscendingNode	105.6
	}
	LunarLambert	0.5
	GeomAlbedo	0.1
	BondAlbedo	0.039
	InfoURL	"https://en.wikipedia.org/wiki/(307261)_2002_MS4"
}

"471143 Dziewanna:Dziewanna:2010 EK139" "Sol"
{
	Class	"asteroid"
	Texture	"asteroid.*"
	Radius	235
	EllipticalOrbit
	{
		Epoch	2458600.5  # 2019 Apr 27
		Period	592.690238887424
		SemiMajorAxis	70.558019446608
		Eccentricity	0.539041175938
		Inclination	29.461007837273
		AscendingNode	346.212834481045
		ArgOfPericenter	284.36092112018
		MeanAnomaly	348.21494174118
	}
	UniformRotation
	{
		Period	7.07
	}
	LunarLambert	0.5
	GeomAlbedo	0.25
	InfoURL	"https://en.wikipedia.org/wiki/471143_Dziewanna"
}

"486958 Arrokoth:Arrokoth:2014 MU69:Ultima Thule:1110113Y:PT1" "Sol"
{
	Class	"asteroid"
	Mesh	"arrokoth.cmod"
	Orientation	[ -50 0 1 0 ]
	Texture	"arrokoth.*"
	Radius	18  # maximum semi-axis
	EllipticalOrbit
	{
		Epoch	2458484.5  # 2019 Jan 01 (New Horizons encounter)
		Period	297.371052339075
		SemiMajorAxis	44.55129423264393
		Eccentricity	0.04097873475827028
		Inclination	2.451769758298457
		AscendingNode	158.9786644650622
		ArgOfPericenter	174.6720281547497
		MeanAnomaly	315.8844151813905
	}
	UniformRotation
	{
		Period	15.938
		Inclination	98.18711913
		AscendingNode	42.5072541
	}
	LunarLambert	0.5
	GeomAlbedo	0.165
	BondAlbedo	0.061
	InfoURL	"https://en.wikipedia.org/wiki/486958_Arrokoth"
}

# Minimum radius from http://www.euraster.net/results/2021/index.html#0122--
"(612911) 2004 XR190:2004 XR190" "Sol"
{
	Class	"asteroid"
	Texture	"asteroid.*"
	Color	[ 1.0 0.988 0.956 ]
	BlendTexture	true
	Radius	280	 # minimum radius
	EllipticalOrbit
	{
		Epoch	2457000.5  # 2014 Dec 09
		Period	438.44713749626
		SemiMajorAxis	57.71287256830396
		Eccentricity	0.1094918923387402
		Inclination	46.59497186792814
		AscendingNode	252.3628385298381
		ArgOfPericenter	281.6361935007498
		MeanAnomaly	277.636302515104
	}
	UniformRotation
	{
		Period	6  # guess
	}
	LunarLambert	0.5
	GeomAlbedo	0.099  # assume minimum radius
	InfoURL	"https://en.wikipedia.org/wiki/(612911)_2004_XR190"
}
